NORAD_CAT_ID,OBJECT_NAME,OBJECT_TYPE,EPOCH,MEAN_MOTION,ECCENTRICITY,INCLINATION,RA_OF_ASC_NODE,ARG_OF_PERICENTER,MEAN_ANOMALY,BSTAR,MEAN_MOTION_DOT,MEAN_MOTION_DDOT,TLE_LINE0,TLE_LINE1,TLE_LINE2,SEMIMAJOR_AXIS,PERIOD,APOGEE,PERIGEE,DECAYED
52365.0,STARLINK-3874,PAYLOAD,2023-10-12 22:04:15,15.08848568,0.0001702,53.2164,174.0707,91.8096,268.3091,0.00032407,4.874e-05,0.0,0 STARLINK-3874,1 52365U 22045AL  23285.91962049  .00004874  00000-0  32407-3 0  9996,2 52365  53.2164 174.0707 0001702  91.8096 268.3091 15.08848568 83253,6917.854,95.437,540.897,538.542,0.0
52365.0,STARLINK-3874,PAYLOAD,2023-10-12 23:39:38,15.08855317,0.0001539,53.2162,173.7773,86.7726,273.3442,0.00046226,7.08e-05,0.0,0 STARLINK-3874,1 52365U 22045AL  23285.98585860  .00007080  00000-0  46226-3 0  9991,2 52365  53.2162 173.7773 0001539  86.7726 273.3442 15.08855317 83268,6917.834,95.437,540.763,538.634,0.0
52365.0,STARLINK-3874,PAYLOAD,2023-10-13 09:11:56,15.08850565,0.0001478,53.2166,171.9931,88.7921,271.324,0.00039253,5.966e-05,0.0,0 STARLINK-3874,1 52365U 22045AL  23286.38329696  .00005966  00000-0  39253-3 0  9992,2 52365  53.2166 171.9931 0001478  88.7921 271.3240 15.08850565 83320,6917.848,95.437,540.736,538.691,0.0
52365.0,STARLINK-3874,PAYLOAD,2023-10-13 20:19:38,15.08842378,0.0001471,53.2165,169.9114,77.9116,282.2041,3.4351e-05,2.59e-06,0.0,0 STARLINK-3874,1 52365U 22045AL  23286.84697885  .00000259  00000-0  34351-4 0  9996,2 52365  53.2165 169.9114 0001471  77.9116 282.2041 15.08842378 83398,6917.873,95.437,540.756,538.721,0.0
52365.0,STARLINK-3874,PAYLOAD,2023-10-13 21:55:02,15.08843645,0.0001517,53.2157,169.6138,77.7911,282.3251,0.00012389,1.684e-05,0.0,0 STARLINK-3874,1 52365U 22045AL  23286.91321894  .00001684  00000-0  12389-3 0  9997,2 52365  53.2157 169.6138 0001517  77.7911 282.3251 15.08843645 83408,6917.869,95.437,540.784,538.685,0.0
52365.0,STARLINK-3874,PAYLOAD,2023-10-14 01:05:48,15.08854971,0.0001456,53.2158,169.0194,81.3831,278.7326,0.0010625,0.00016669,0.0,0 STARLINK-3874,1 52365U 22045AL  23287.04569646  .00016669  00000-0  10625-2 0  9990,2 52365  53.2158 169.0194 0001456  81.3831 278.7326 15.08854971 83427,6917.835,95.437,540.707,538.692,0.0
52365.0,STARLINK-3874,PAYLOAD,2023-10-14 09:02:44,15.08838507,0.0001529,53.2158,167.5317,88.1233,271.9935,0.00020773,3.019e-05,0.0,0 STARLINK-3874,1 52365U 22045AL  23287.37690034  .00003019  00000-0  20773-3 0  9993,2 52365  53.2158 167.5317 0001529  88.1233 271.9935 15.08838507 83472,6917.885,95.438,540.808,538.692,0.0
52365.0,STARLINK-3874,PAYLOAD,2023-10-14 20:10:26,15.08827583,0.0001079,53.2161,165.4521,104.0414,256.0698,5.1579e-06,-2.06e-06,0.0,0 STARLINK-3874,1 52365U 22045AL  23287.84058396 -.00000206  00000-0  51579-5 0  9990,2 52365  53.2161 165.4521 0001079 104.0414 256.0698 15.08827583 83549,6917.918,95.438,540.53,539.037,0.0
52365.0,STARLINK-3874,PAYLOAD,2023-10-14 21:45:49,15.08827634,0.0001304,53.2149,165.1561,104.1558,255.9579,-3.0149e-05,-7.67e-06,0.0,0 STARLINK-3874,1 52365U 22045AL  23287.90682503 -.00000767  00000-0 -30149-4 0  9992,2 52365  53.2149 165.1561 0001304 104.1558 255.9579 15.08827634 83551,6917.918,95.438,540.685,538.881,0.0
52365.0,STARLINK-3874,PAYLOAD,2023-10-15 08:53:31,15.08838442,0.0001517,53.2151,163.0712,90.8268,269.2898,0.00022088,3.229e-05,0.0,0 STARLINK-3874,1 52365U 22045AL  23288.37050627  .00003229  00000-0  22088-3 0  9996,2 52365  53.2151 163.0712 0001517  90.8268 269.2898 15.08838442 83623,6917.885,95.438,540.8,538.701,0.0
52365.0,STARLINK-3874,PAYLOAD,2023-10-15 21:36:36,15.088415,0.0001365,53.2146,160.6937,94.5875,265.5273,0.00045296,6.929e-05,0.0,0 STARLINK-3874,1 52365U 22045AL  23288.90042793  .00006929  00000-0  45296-3 0  9996,2 52365  53.2146 160.6937 0001365  94.5875 265.5273 15.08841500 83709,6917.876,95.437,540.685,538.797,0.0
52365.0,STARLINK-3874,PAYLOAD,2023-10-16 15:05:51,15.08843989,0.0001421,53.214,157.4219,86.8183,273.2971,0.00027654,4.116e-05,0.0,0 STARLINK-3874,1 52365U 22045AL  23289.62906779  .00004116  00000-0  27654-3 0  9993,2 52365  53.2140 157.4219 0001421  86.8183 273.2971 15.08843989 83815,6917.868,95.437,540.716,538.75,0.0
52365.0,STARLINK-3874,PAYLOAD,2023-10-16 18:16:37,15.08843884,0.000144,53.2142,156.827,87.8554,272.2603,0.0002825,4.211e-05,0.0,0 STARLINK-3874,1 52365U 22045AL  23289.76154828  .00004211  00000-0  28250-3 0  9997,2 52365  53.2142 156.8270 0001440  87.8554 272.2603 15.08843884 83838,6917.869,95.437,540.73,538.737,0.0
52365.0,STARLINK-3874,PAYLOAD,2023-10-17 08:35:05,15.08843597,0.000141,53.2145,154.149,93.8866,266.2287,0.00015547,2.187e-05,0.0,0 STARLINK-3874,1 52365U 22045AL  23290.35770619  .00002187  00000-0  15547-3 0  9991,2 52365  53.2145 154.1490 0001410  93.8866 266.2287 15.08843597 83928,6917.869,95.437,540.71,538.759,0.0
52365.0,STARLINK-3874,PAYLOAD,2023-10-17 21:18:10,15.08845906,0.0001486,53.2141,151.772,94.9581,265.158,0.00019486,2.815e-05,0.0,0 STARLINK-3874,1 52365U 22045AL  23290.88762572  .00002815  00000-0  19486-3 0  9992,2 52365  53.2141 151.7720 0001486  94.9581 265.1580 15.08845906 84002,6917.862,95.437,540.755,538.699,0.0
52365.0,STARLINK-3874,PAYLOAD,2023-10-18 21:08:57,15.0884665,0.0001008,53.2142,147.3108,77.809,282.3015,0.00022551,3.304e-05,0.0,0 STARLINK-3874,1 52365U 22045AL  23291.88122617  .00003304  00000-0  22551-3 0  9994,2 52365  53.2142 147.3108 0001008  77.8090 282.3015 15.08846650 84156,6917.86,95.437,540.422,539.028,0.0
52365.0,STARLINK-3874,PAYLOAD,2023-10-19 00:19:44,15.08849984,0.0001377,53.2148,146.7156,88.7562,271.3588,0.00026025,3.857e-05,0.0,0 STARLINK-3874,1 52365U 22045AL  23292.01370398  .00003857  00000-0  26025-3 0  9994,2 52365  53.2148 146.7156 0001377  88.7562 271.3588 15.08849984 84170,6917.85,95.437,540.667,538.762,0.0
52365.0,STARLINK-3874,PAYLOAD,2023-10-19 20:59:44,15.08857509,0.000137,53.2123,142.8484,84.8776,275.2373,0.00017866,2.558e-05,0.0,0 STARLINK-3874,1 52365U 22045AL  23292.87481681  .00002558  00000-0  17866-3 0  9996,2 52365  53.2123 142.8484 0001370  84.8776 275.2373 15.08857509 84303,6917.827,95.436,540.64,538.744,0.0
52365.0,STARLINK-3874,PAYLOAD,2023-10-20 00:10:30,15.08855101,0.0001416,53.2138,142.2545,87.0506,273.0648,0.00033993,5.128e-05,0.0,0 STARLINK-3874,1 52365U 22045AL  23293.00729842  .00005128  00000-0  33993-3 0  9991,2 52365  53.2138 142.2545 0001416  87.0506 273.0648 15.08855101 84327,6917.834,95.437,540.679,538.72,0.0
52365.0,STARLINK-3874,PAYLOAD,2023-10-20 12:53:35,15.08840619,0.0002028,53.2127,139.8768,90.6995,269.4229,-1.453e-05,-5.19e-06,0.0,0 STARLINK-3874,1 52365U 22045AL  23293.53722169 -.00000519  00000-0 -14530-4 0  9992,2 52365  53.2127 139.8768 0002028  90.6995 269.4229 15.08840619 84407,6917.878,95.438,541.146,538.341,0.0
52365.0,STARLINK-3874,PAYLOAD,2023-10-20 14:28:59,15.08839548,0.0001982,53.2124,139.5787,90.1013,270.0206,-2.9484e-05,-7.57e-06,0.0,0 STARLINK-3874,1 52365U 22045AL  23293.60346216 -.00000757  00000-0 -29484-4 0  9993,2 52365  53.2124 139.5787 0001982  90.1013 270.0206 15.08839548 84419,6917.882,95.438,541.118,538.376,0.0
52365.0,STARLINK-3874,PAYLOAD,2023-10-20 20:50:31,15.08836474,0.0001422,53.2146,138.3896,99.3953,260.72,-6.433e-05,-1.312e-05,0.0,0 STARLINK-3874,1 52365U 22045AL  23293.86842492 -.00001312  00000-0 -64330-4 0  9995,2 52365  53.2146 138.3896 0001422  99.3953 260.7200 15.08836474 84453,6917.891,95.438,540.74,538.772,0.0
52365.0,STARLINK-3874,PAYLOAD,2023-10-21 06:22:50,15.08840329,0.0001389,53.2153,136.6055,96.4016,263.7134,5.7372e-05,6.25e-06,0.0,0 STARLINK-3874,1 52365U 22045AL  23294.26586451  .00000625  00000-0  57372-4 0  9992,2 52365  53.2153 136.6055 0001389  96.4016 263.7134 15.08840329 84519,6917.879,95.438,540.705,538.783,0.0
52365.0,STARLINK-3874,PAYLOAD,2023-10-21 20:41:18,15.08851356,0.0001294,53.2146,133.9298,102.1904,257.9233,-4.441e-05,-9.95e-06,0.0,0 STARLINK-3874,1 52365U 22045AL  23294.86201913 -.00000995  00000-0 -44410-4 0  9996,2 52365  53.2146 133.9298 0001294 102.1904 257.9233 15.08851356 84603,6917.846,95.437,540.606,538.816,0.0
52365.0,STARLINK-3874,PAYLOAD,2023-10-21 22:16:41,15.08848874,0.0001305,53.2145,133.6324,99.2027,260.9113,0.00027543,4.099e-05,0.0,0 STARLINK-3874,1 52365U 22045AL  23294.92826211  .00004099  00000-0  27543-3 0  9991,2 52365  53.2145 133.6324 0001305  99.2027 260.9113 15.08848874 84617,6917.853,95.437,540.621,538.815,0.0
52365.0,STARLINK-3874,PAYLOAD,2023-10-22 06:13:37,15.08840267,0.0001553,53.2148,132.1451,90.5114,269.6056,0.00018275,2.622e-05,0.0,0 STARLINK-3874,1 52365U 22045AL  23295.25946639  .00002622  00000-0  18275-3 0  9997,2 52365  53.2148 132.1451 0001553  90.5114 269.6056 15.08840267 84666,6917.88,95.438,540.819,538.67,0.0
52365.0,STARLINK-3874,PAYLOAD,2023-10-22 20:32:06,15.08828421,0.0001286,53.2146,129.4696,88.3081,271.8058,1.2031e-05,-9.6e-07,0.0,0 STARLINK-3874,1 52365U 22045AL  23295.85563515 -.00000096  00000-0  12031-4 0  9990,2 52365  53.2146 129.4696 0001286  88.3081 271.8058 15.08828421 84750,6917.916,95.438,540.67,538.891,0.0
52365.0,STARLINK-3874,PAYLOAD,2023-10-23 12:25:58,15.0883759,0.0001218,53.2148,126.4955,89.0144,271.0987,9.4799e-05,1.221e-05,0.0,0 STARLINK-3874,1 52365U 22045AL  23296.51803269  .00001221  00000-0  94799-4 0  9998,2 52365  53.2148 126.4955 0001218  89.0144 271.0987 15.08837590 84851,6917.888,95.438,540.595,538.91,0.0
52365.0,STARLINK-3874,PAYLOAD,2023-10-23 20:22:53,15.08845474,0.0001204,53.2159,125.0081,88.6323,271.4807,7.6978e-05,9.38e-06,0.0,0 STARLINK-3874,1 52365U 22045AL  23296.84923008  .00000938  00000-0  76978-4 0  9991,2 52365  53.2159 125.0081 0001204  88.6323 271.4807 15.08845474 84908,6917.864,95.437,540.562,538.896,0.0
52365.0,STARLINK-3874,PAYLOAD,2023-10-24 13:52:07,15.08840407,0.0001176,53.2159,121.7369,89.3475,270.7652,0.00021231,3.093e-05,0.0,0 STARLINK-3874,1 52365U 22045AL  23297.57786867  .00003093  00000-0  21231-3 0  9998,2 52365  53.2159 121.7369 0001176  89.3475 270.7652 15.08840407 85018,6917.879,95.438,540.558,538.931,0.0
